satname,norad_id,inclination_deg,eccentricity,mean_motion_rev_per_day,perigee_km,apogee_km,l1,l2
STARLINK-1478,45755,53.0546,0.0001563,15.06393903,546.1478095278708,548.3126793284791,1 45755U 20038AB  25329.69971830  .00009873  00000+0  68090-3 0  9995,2 45755  53.0546 323.4451 0001563  90.5749 269.5419 15.06393903300796
STARLINK-1484,45756,53.0131,0.0003566,15.66180253,367.44016992099023,372.2528317537872,1 45756U 20038AC  25329.06609718  .00099890  00000+0  94587-3 0  9998,2 45756  53.0131 221.8506 0003566 109.0586 251.0815 15.66180253302166
STARLINK-1493,45759,53.0555,0.0001128,15.06399267,546.4326249078713,547.9949840493618,1 45759U 20038AF  25329.68866821  .00002155  00000+0  16353-3 0  9992,2 45759  53.0555 323.4945 0001128  89.4590 270.6528 15.06399267300799
STARLINK-1494,45760,53.0547,0.0005437,15.53774931,402.0277124245449,409.4044742782553,1 45760U 20038AG  25329.64233288  .00048325  00000+0  74284-3 0  9991,2 45760  53.0547 300.5857 0005437  82.7753 277.3874 15.53774931301127
STARLINK-1502,45764,53.0559,0.0001611,15.06400354,546.0947995015777,548.3261464573707,1 45764U 20038AL  25329.72183972  .00003628  00000+0  26231-3 0  9994,2 45764  53.0559 323.3476 0001611  87.6927 272.4247 15.06400354300819
STARLINK-1470,45772,53.0477,0.0005833,15.1971623,502.6816065540752,510.7134545173976,1 45772U 20038AU  25329.63804194  .00063093  00000+0  29055-2 0  9997,2 45772  53.0477 294.0328 0005833  16.4018 343.7164 15.19716230301210
STARLINK-1482,45773,53.0547,0.0001556,15.06397669,546.1411167795131,548.296287474016,1 45773U 20038AV  25329.22239861  .00002410  00000+0  18065-3 0  9992,2 45773  53.0547 305.5900 0001556  89.1122 271.0045 15.06397669301010
STARLINK-1496,45780,53.0542,0.0001454,15.0639915,546.20721700797,548.2211091261897,1 45780U 20038BC  25329.65364942  .00008495  00000+0  58849-3 0  9999,2 45780  53.0542 303.6527 0001454  91.6347 268.4808 15.06399150301060
STARLINK-1497,45781,53.0362,0.0006967,15.6198078,377.22623309787195,386.6457187825472,1 45781U 20038BD  25329.91670139  .00137172  00000+0  15224-2 0  9991,2 45781  53.0362 238.4993 0006967  66.0112   8.3140 15.61980780  5981
STARLINK-1510,45784,53.0258,0.0004513,15.81402369,323.44819933664166,329.49978121646564,1 45784U 20038BG  25329.91670139  .00154904  00000+0  75522-3 0  9994,2 45784  53.0258 211.3991 0004513 139.9624 342.6442 15.81402369  6028
STARLINK-1513,45786,53.0555,0.0001476,15.06399627,546.1905195139043,548.234882745679,1 45786U 20038BJ  25329.35140147  .00000889  00000+0  78564-4 0  9997,2 45786  53.0555 305.0118 0001476  86.8669 273.2489 15.06399627301034
STARLINK-1522,46027,53.0522,0.0001569,15.06421895,546.0578770694246,548.2310303896038,1 46027U 20055A   25329.46475267  .00013799  00000+0  94292-3 0  9990,2 46027  53.0522 234.5012 0001569  83.8813 276.2355 15.06421895293170
STARLINK-1523,46028,53.0544,0.0001628,15.06405765,546.0664452311921,548.3213329686841,1 46028U 20055B   25329.47949644  .00006312  00000+0  44219-3 0  9994,2 46028  53.0544 234.4371 0001628 105.8320 254.2848 15.06405765293199
STARLINK-1526,46029,53.0534,0.0001738,15.06408058,545.9832401518124,548.3904827260485,1 46029U 20055C   25329.47212522  .00007919  00000+0  54979-3 0  9991,2 46029  53.0534 234.4679 0001738  99.3147 260.8039 15.06408058293188
STARLINK-1555,46032,53.0539,0.0001848,15.06400397,545.930537002072,548.4901453793755,1 46032U 20055F   25329.45738248  .00005521  00000+0  38924-3 0  9990,2 46032  53.0539 234.5360 0001848  95.9568 264.1632 15.06400397293180
STARLINK-1556,46033,53.0538,0.0001351,15.06400047,546.2757993193336,548.1470284607676,1 46033U 20055G   25329.17357077  .00006978  00000+0  48690-3 0  9995,2 46033  53.0538 235.8089 0001351  89.0227 271.0917 15.06400047293115
STARLINK-1557,46034,53.0533,0.0001561,15.06395969,546.1428635618304,548.3049612386831,1 46034U 20055H   25329.17723806 -.00001577  00000+0 -86974-4 0  9993,2 46034  53.0533 235.7893 0001561  87.1248 272.9920 15.06395969293118
STARLINK-1558,46035,53.0551,0.0001715,15.06400382,546.0226900866446,548.3980842404408,1 46035U 20055J   25329.45001008  .00005005  00000+0  35469-3 0  9998,2 46035  53.0551 234.5705 0001715  98.9168 261.2016 15.06400382293180
STARLINK-1560,46036,53.054,0.0001791,15.06402872,545.962427335663,548.4430840361501,1 46036U 20055K   25329.16988281  .00005928  00000+0  41648-3 0  9994,2 46036  53.0540 235.8290 0001791  79.3090 280.8101 15.06402872293147
STARLINK-1567,46038,53.0547,0.0001626,15.06406524,546.0655044657424,548.3176213143943,1 46038U 20055M   25329.44632591  .00007844  00000+0  54480-3 0  9994,2 46038  53.0547 234.5856 0001626 105.5434 254.5734 15.06406524293172
STARLINK-1569,46039,53.054,0.0001602,15.06397827,546.1087759724096,548.3276597842187,1 46039U 20055N   25329.45370000  .00005559  00000+0  39183-3 0  9994,2 46039  53.0540 234.5535 0001602 101.7383 258.3786 15.06397827293179
STARLINK-1582,46043,53.0534,0.0001568,15.06408789,546.0987306199131,548.2705114802748,1 46043U 20055S   25329.46106325  .00004739  00000+0  33673-3 0  9994,2 46043  53.0534 234.5206 0001568  97.6131 262.5036 15.06408789293172
STARLINK-1591,46045,53.0538,0.0001577,15.06409961,546.088906422965,548.273151729335,1 46045U 20055U   25329.15513848  .00010266  00000+0  70688-3 0  9993,2 46045  53.0538 235.8914 0001577  84.4618 275.6550 15.06409961293115
STARLINK-1524,46047,53.0516,0.0001511,15.06417587,546.1112448180274,548.2040688633242,1 46047U 20055W   25329.43988051  .00021064  00000+0  14281-2 0  9992,2 46047  53.0516 224.6178 0001511 114.2119 245.9028 15.06417587293312
STARLINK-1527,46048,53.0527,0.0001649,15.06395329,546.0838815796133,548.3678662554303,1 46048U 20055X   25329.10445328  .00004234  00000+0  30298-3 0  9999,2 46048  53.0527 226.1194 0001649  99.4680 260.6495 15.06395329293242
STARLINK-1540,46051,53.0539,0.0001786,15.06399891,545.9750246954854,548.44875931971,1 46051U 20055AA  25329.13762535  .00005762  00000+0  40543-3 0  9999,2 46051  53.0539 225.9699 0001786  75.5634 284.5553 15.06399891293284
STARLINK-1541,46052,53.0538,0.0001669,15.06403343,546.0454731794089,548.3571511080027,1 46052U 20055AB  25329.45461764  .00006784  00000+0  47382-3 0  9998,2 46052  53.0538 224.5438 0001669  99.7235 260.3942 15.06403343293298
STARLINK-1543,46053,53.0517,0.0001464,15.06407688,546.1741278464324,548.2018630050934,1 46053U 20055AC  25329.12656948  .00009044  00000+0  62515-3 0  9990,2 46053  53.0517 226.0195 0001464  77.0235 283.0918 15.06407688293274
